GLOBALSTAR M068         
1 32266U 07048D   24203.48192503 -.00000046  00000+0  32157-3 0  9992
2 32266  51.9860 230.3350 0001068 136.1367  11.7019 12.62794844775777
GLOBALSTAR M079         
1 37188U 10054A   24203.91503705 -.00000074  00000+0  16511-3 0  9996
2 37188  52.0045  65.1869 0000594  56.6014  71.4617 12.62261855634748
GLOBALSTAR M074         
1 37189U 10054B   24204.18535906 -.00000078  00000+0  14325-3 0  9990
2 37189  52.0024  63.7385 0000824  69.6663  86.7099 12.62270580635450
GLOBALSTAR M076         
1 37190U 10054C   24204.05523701 -.00000072  00000+0  17845-3 0  9992
2 37190  52.0036  64.2758 0000926  44.6601 120.1367 12.62253831635443
GLOBALSTAR M077         
1 37191U 10054D   24203.79146157 -.00000096  00000+0  44822-4 0  9991
2 37191  52.0087  21.8390 0000893  87.7627  18.1493 12.62261439635427
GLOBALSTAR M075         
1 37192U 10054E   24204.22844692 -.00000072  00000+0  17990-3 0  9999
2 37192  51.9947 106.1890 0000543  51.0206 121.3963 12.62261955634704
GLOBALSTAR M073         
1 37193U 10054F   24204.51510601 -.00000103  00000+0  40974-5 0  9997
2 37193  52.0082  18.8849 0000842  77.4227 317.1900 12.62267178636258
GLOBALSTAR M083         
1 37739U 11033A   24204.53193878 -.00000077  00000+0  15198-3 0  9994
2 37739  51.9881 328.0146 0000620 124.6575 288.1429 12.62262577605583
GLOBALSTAR M088         
1 37740U 11033B   24204.10566418 -.00000076  00000+0  15396-3 0  9992
2 37740  51.9712 235.0820 0000267 190.2424 204.7437 12.62265518601007
GLOBALSTAR M091         
1 37741U 11033C   24204.20847843 -.00000117  00000+0 -73967-4 0  9994
2 37741  51.9969 197.7344 0000262 227.3781 213.4927 12.62264847601779
GLOBALSTAR M085         
1 37742U 11033D   24204.03628497 -.00000103  00000+0  29315-5 0  9991
2 37742  51.9855 149.5867 0000150   6.7451  72.7150 12.62263537602497
GLOBALSTAR M081         
1 37743U 11033E   24204.13923367 -.00000112  00000+0 -46311-4 0  9992
2 37743  51.9944 151.8573 0000363 339.4612  87.3876 12.62267043602547
GLOBALSTAR M089         
1 37744U 11033F   24203.94466789 -.00000088  00000+0  88915-4 0  9998
2 37744  51.9929 106.7425 0000893  39.7631  41.0367 12.62266056602988
GLOBALSTAR M084         
1 38040U 11080A   24203.56156416 -.00000088  00000+0  88635-4 0  9990
2 38040  52.0030 335.0200 0000941  91.3285 349.0409 12.62264414581197
GLOBALSTAR M080         
1 38041U 11080B   24203.86451596 -.00000099  00000+0  25439-4 0  9996
2 38041  52.0083 335.5881 0000838  75.8267  62.1664 12.62262913581219
GLOBALSTAR M082         
1 38042U 11080C   24204.41909090 -.00000073  00000+0  17020-3 0  9994
2 38042  52.0083 289.3131 0000949 157.0123 282.1831 12.62264076582023
GLOBALSTAR M092         
1 38043U 11080D   24204.54145043 -.00000082  00000+0  12049-3 0  9995
2 38043  52.0103  19.2966 0000969  88.9256 306.7710 12.62263984580534
GLOBALSTAR M090         
1 38044U 11080E   24203.74701336 -.00000055  00000+0  27193-3 0  9996
2 38044  51.9890 285.5936 0000671 148.5979 354.6572 12.62265074581885
GLOBALSTAR M086         
1 38045U 11080F   24203.68928273 -.00000071  00000+0  18553-3 0  9999
2 38045  51.9901 286.2936 0000369 302.6948 178.8846 12.62264588581823
GLOBALSTAR M097         
1 39072U 13005A   24203.45196259 -.00000104  00000+0  11330-5 0  9990
2 39072  52.0019 201.2284 0000187 255.0695 105.0151 12.62269126529047
GLOBALSTAR M093         
1 39073U 13005B   24203.90018150 -.00000102  00000+0  92769-5 0  9997
2 39073  51.9784 193.6921 0000323 267.2633  92.8196 12.62276158529052
GLOBALSTAR M094         
1 39074U 13005C   24203.90018590 -.00000092  00000+0  66024-4 0  9998
2 39074  51.9958 107.7435 0000478  22.1630 337.9257 12.62286489530666
GLOBALSTAR M096         
1 39075U 13005D   24204.30935351 -.00000109  00000+0 -31536-4 0  9997
2 39075  52.0058 154.7545 0000196 311.1125  48.9725 12.62267696529982
GLOBALSTAR M078         
1 39076U 13005E   24203.57039269 -.00000097  00000+0  37086-4 0  9990
2 39076  51.9858 241.9663 0001213 158.0493 202.0425 12.62273291528376
GLOBALSTAR M095         
1 39077U 13005F   24204.46753191 -.00000078  00000+0  14633-3 0  9998
2 39077  51.9777 236.5926 0000775 192.3130 167.7718 12.62262665528498
GLOBALSTAR M087         
1 52888U 22064A   24203.85487329 -.00000061  00000+0  12772-3 0  9991
2 52888  51.9761  87.4964 0010059  90.9642 269.2411 13.37579048102167
